*******************************************************************************
Ephemeris / WWW_USER Mon Mar 10 06:48:02 2025 Pasadena, USA      / Horizons    
*******************************************************************************
Target body name: (2018 VS8)                      {source: JPL#8}
Center body name: Earth (399)                     {source: DE441}
Center-site name: Mauna Kea
*******************************************************************************
Start time      : A.D. 2018-Nov-11 03:53:00.0000 UT      
Stop  time      : A.D. 2018-Nov-11 16:18:00.0000 UT      
Step-size       : 1 minutes
*******************************************************************************
Target pole/equ : undefined
Target radii    : undefined                                                    
Center geodetic : 204.5278, 19.8260847, 4.21024   {E-lon(deg),Lat(deg),Alt(km)}
Center cylindric: 204.5278, 6006.35451, 2151.0229 {E-lon(deg),Dxy(km),Dz(km)}
Center pole/equ : ITRF93                          {East-longitude positive}
Center radii    : 6378.137, 6378.137, 6356.752 km {Equator_a, b, pole_c}       
Target primary  : Sun
Vis. interferer : MOON (R_eq= 1737.400) km        {source: DE441}
Rel. light bend : Sun                             {source: DE441}
Rel. lght bnd GM: 1.3271E+11 km^3/s^2                                          
Small-body perts: Yes                             {source: SB441-N16}
Atmos refraction: NO (AIRLESS)
RA format       : HMS
Time format     : CAL 
Calendar mode   : Mixed Julian/Gregorian
RTS-only print  : NO       
EOP file        : eop.250307.p250603                                           
EOP coverage    : DATA-BASED 1962-JAN-20 TO 2025-MAR-07. PREDICTS-> 2025-JUN-02
Units conversion: 1 au= 149597870.700 km, c= 299792.458 km/s, 1 day= 86400.0 s 
Table cut-offs 1: Elevation (-90.0deg=NO ),Airmass (>38.000=NO), Daylight (YES)
Table cut-offs 2: Solar elongation (  0.0,180.0=NO ),Local Hour Angle( 0.0=NO )
Table cut-offs 3: RA/DEC angular rate (     0.0=NO )                           
*******************************************************************************
Initial IAU76/J2000 heliocentric ecliptic osculating elements (au, days, deg.):
  EPOCH=  2458433.5 ! 2018-Nov-11.00 (TDB)         Residual RMS= .33953        
   EC= .5263784885368822   QR= .9373233613851428   TP= 2458465.1575556668      
   OM= 53.89076972236643   W=  33.71683445616237   IN= 3.430463171034721       
  Equivalent ICRF heliocentric cartesian coordinates (au, au/d):
   X= 6.888560011548344E-01  Y= 6.928655939663307E-01  Z= 2.929974091538562E-01
  VX=-1.813811938800288E-02 VY= 8.693003909227039E-03 VZ= 5.111678677431928E-03
Asteroid physical parameters (km, seconds, rotational period in hours):        
   GM= n.a.                RAD= n.a.               ROTPER= n.a.                
   H= 27.2                 G= .150                 B-V= n.a.                   
                           ALBEDO= n.a.            STYP= n.a.                  
*******************************************************************************
 Date__(UT)__HR:MN     R.A._________(ICRF)_________DEC
******************************************************
$$SOE
 2018-Nov-11 14:08     01 47 24.907134 -01 12 21.43215
 2018-Nov-11 14:09     01 47 25.116096 -01 12 19.15030
 2018-Nov-11 14:10     01 47 25.325452 -01 12 16.86788
 2018-Nov-11 14:11     01 47 25.535202 -01 12 14.58489
 2018-Nov-11 14:12     01 47 25.745348 -01 12 12.30133
 2018-Nov-11 14:13     01 47 25.955890 -01 12 10.01719
 2018-Nov-11 14:14     01 47 26.166827 -01 12 07.73247
 2018-Nov-11 14:15     01 47 26.378161 -01 12 05.44719
 2018-Nov-11 14:16     01 47 26.589891 -01 12 03.16133
 2018-Nov-11 14:17     01 47 26.802018 -01 12 00.87490
 2018-Nov-11 14:18     01 47 27.014543 -01 11 58.58790
 2018-Nov-11 14:19     01 47 27.227465 -01 11 56.30033
 2018-Nov-11 14:20     01 47 27.440785 -01 11 54.01218
 2018-Nov-11 14:21     01 47 27.654503 -01 11 51.72346
 2018-Nov-11 14:22     01 47 27.868621 -01 11 49.43418
 2018-Nov-11 14:23     01 47 28.083137 -01 11 47.14432
 2018-Nov-11 14:24     01 47 28.298052 -01 11 44.85389
 2018-Nov-11 14:25     01 47 28.513367 -01 11 42.56289
 2018-Nov-11 14:26     01 47 28.729081 -01 11 40.27132
 2018-Nov-11 14:27     01 47 28.945196 -01 11 37.97919
 2018-Nov-11 14:28     01 47 29.161711 -01 11 35.68648
 2018-Nov-11 14:29     01 47 29.378627 -01 11 33.39320
 2018-Nov-11 14:30     01 47 29.595943 -01 11 31.09935
 2018-Nov-11 14:31     01 47 29.813661 -01 11 28.80494
 2018-Nov-11 14:32     01 47 30.031780 -01 11 26.50996
 2018-Nov-11 14:33     01 47 30.250301 -01 11 24.21441
 2018-Nov-11 14:34     01 47 30.469224 -01 11 21.91829
 2018-Nov-11 14:35     01 47 30.688549 -01 11 19.62160
 2018-Nov-11 14:36     01 47 30.908277 -01 11 17.32435
 2018-Nov-11 14:37     01 47 31.128406 -01 11 15.02653
 2018-Nov-11 14:38     01 47 31.348939 -01 11 12.72814
 2018-Nov-11 14:39     01 47 31.569875 -01 11 10.42918
 2018-Nov-11 14:40     01 47 31.791214 -01 11 08.12966
 2018-Nov-11 14:41     01 47 32.012956 -01 11 05.82957
 2018-Nov-11 14:42     01 47 32.235102 -01 11 03.52892
 2018-Nov-11 14:43     01 47 32.457652 -01 11 01.22770
 2018-Nov-11 14:44     01 47 32.680605 -01 10 58.92592
 2018-Nov-11 14:45     01 47 32.903963 -01 10 56.62357
 2018-Nov-11 14:46     01 47 33.127725 -01 10 54.32066
 2018-Nov-11 14:47     01 47 33.351891 -01 10 52.01718
 2018-Nov-11 14:48     01 47 33.576462 -01 10 49.71313
 2018-Nov-11 14:49     01 47 33.801437 -01 10 47.40853
 2018-Nov-11 14:50     01 47 34.026818 -01 10 45.10336
 2018-Nov-11 14:51     01 47 34.252603 -01 10 42.79762
 2018-Nov-11 14:52     01 47 34.478794 -01 10 40.49132
 2018-Nov-11 14:53     01 47 34.705389 -01 10 38.18446
 2018-Nov-11 14:54     01 47 34.932390 -01 10 35.87704
 2018-Nov-11 14:55     01 47 35.159797 -01 10 33.56905
 2018-Nov-11 14:56     01 47 35.387609 -01 10 31.26050
 2018-Nov-11 14:57     01 47 35.615826 -01 10 28.95139
 2018-Nov-11 14:58  s  01 47 35.844449 -01 10 26.64171
 2018-Nov-11 14:59     01 47 36.073478 -01 10 24.33148
 2018-Nov-11 15:00     01 47 36.302913 -01 10 22.02068
 2018-Nov-11 15:01     01 47 36.532753 -01 10 19.70932
 2018-Nov-11 15:02     01 47 36.763000 -01 10 17.39740
 2018-Nov-11 15:03     01 47 36.993652 -01 10 15.08492
 2018-Nov-11 15:04     01 47 37.224711 -01 10 12.77188
 2018-Nov-11 15:05     01 47 37.456175 -01 10 10.45828
 2018-Nov-11 15:06     01 47 37.688046 -01 10 08.14412
 2018-Nov-11 15:07     01 47 37.920322 -01 10 05.82939
 2018-Nov-11 15:08     01 47 38.153005 -01 10 03.51411
 2018-Nov-11 15:09     01 47 38.386094 -01 10 01.19827
 2018-Nov-11 15:10     01 47 38.619589 -01 09 58.88187
 2018-Nov-11 15:11     01 47 38.853490 -01 09 56.56491
 2018-Nov-11 15:12     01 47 39.087798 -01 09 54.24739
 2018-Nov-11 15:13 A   01 47 39.322511 -01 09 51.92932
 2018-Nov-11 15:14 A   01 47 39.557631 -01 09 49.61068
 2018-Nov-11 15:15 A   01 47 39.793156 -01 09 47.29149
 2018-Nov-11 15:16 A   01 47 40.029088 -01 09 44.97174
 2018-Nov-11 15:17 A   01 47 40.265425 -01 09 42.65143
 2018-Nov-11 15:18 A   01 47 40.502169 -01 09 40.33056
 2018-Nov-11 15:19 A   01 47 40.739318 -01 09 38.00914
 2018-Nov-11 15:20 A   01 47 40.976873 -01 09 35.68715
 2018-Nov-11 15:21 A   01 47 41.214834 -01 09 33.36462
 2018-Nov-11 15:22 A   01 47 41.453200 -01 09 31.04152
 2018-Nov-11 15:23 A   01 47 41.691972 -01 09 28.71787
 2018-Nov-11 15:24 A   01 47 41.931149 -01 09 26.39366
 2018-Nov-11 15:25 A   01 47 42.170732 -01 09 24.06890
 2018-Nov-11 15:26 A   01 47 42.410720 -01 09 21.74358
 2018-Nov-11 15:27 A   01 47 42.651113 -01 09 19.41771
 2018-Nov-11 15:28 A   01 47 42.891912 -01 09 17.09128
 2018-Nov-11 15:29 A   01 47 43.133115 -01 09 14.76429
 2018-Nov-11 15:30 A   01 47 43.374723 -01 09 12.43675
 2018-Nov-11 15:31 A   01 47 43.616735 -01 09 10.10865
 2018-Nov-11 15:32 A   01 47 43.859153 -01 09 07.78000
 2018-Nov-11 15:33 A   01 47 44.101974 -01 09 05.45080
 2018-Nov-11 15:34 A   01 47 44.345200 -01 09 03.12104
 2018-Nov-11 15:35 A   01 47 44.588829 -01 09 00.79073
 2018-Nov-11 15:36 A   01 47 44.832863 -01 08 58.45986
 2018-Nov-11 15:37 A   01 47 45.077300 -01 08 56.12844
 2018-Nov-11 15:38 A   01 47 45.322141 -01 08 53.79646
 2018-Nov-11 15:39 N   01 47 45.567385 -01 08 51.46394
 2018-Nov-11 15:40 N   01 47 45.813033 -01 08 49.13086
 2018-Nov-11 15:41 N   01 47 46.059083 -01 08 46.79722
 2018-Nov-11 15:42 N   01 47 46.305536 -01 08 44.46304
 2018-Nov-11 15:43 N   01 47 46.552391 -01 08 42.12830
 2018-Nov-11 15:44 N   01 47 46.799649 -01 08 39.79301
 2018-Nov-11 15:45 N   01 47 47.047309 -01 08 37.45716
 2018-Nov-11 15:46 N   01 47 47.295370 -01 08 35.12077
 2018-Nov-11 15:47 N   01 47 47.543833 -01 08 32.78382
 2018-Nov-11 15:48 N   01 47 47.792698 -01 08 30.44632
 2018-Nov-11 15:49 N   01 47 48.041963 -01 08 28.10827
 2018-Nov-11 15:50 N   01 47 48.291630 -01 08 25.76967
 2018-Nov-11 15:51 N   01 47 48.541697 -01 08 23.43052
 2018-Nov-11 15:52 N   01 47 48.792164 -01 08 21.09082
 2018-Nov-11 15:53 N   01 47 49.043031 -01 08 18.75056
 2018-Nov-11 15:54 N   01 47 49.294298 -01 08 16.40976
 2018-Nov-11 15:55 N   01 47 49.545964 -01 08 14.06840
 2018-Nov-11 15:56 N   01 47 49.798030 -01 08 11.72650
 2018-Nov-11 15:57 N   01 47 50.050494 -01 08 09.38404
 2018-Nov-11 15:58 N   01 47 50.303357 -01 08 07.04104
 2018-Nov-11 15:59 N   01 47 50.556618 -01 08 04.69748
 2018-Nov-11 16:00 N   01 47 50.810276 -01 08 02.35338
 2018-Nov-11 16:01 N   01 47 51.064333 -01 08 00.00872
 2018-Nov-11 16:02 N   01 47 51.318786 -01 07 57.66352
 2018-Nov-11 16:03 N   01 47 51.573636 -01 07 55.31777
 2018-Nov-11 16:04 N   01 47 51.828883 -01 07 52.97146
 2018-Nov-11 16:05 N   01 47 52.084526 -01 07 50.62461
 2018-Nov-11 16:06 C   01 47 52.340564 -01 07 48.27721
 2018-Nov-11 16:07 C   01 47 52.596998 -01 07 45.92927
 2018-Nov-11 16:08 C   01 47 52.853827 -01 07 43.58077
 2018-Nov-11 16:09 C   01 47 53.111051 -01 07 41.23173
 2018-Nov-11 16:10 C   01 47 53.368669 -01 07 38.88213
